GLOBALSTAR M068         
1 32266U 07048D   24225.86260865 -.00000035  00000+0  38116-3 0  9994
2 32266  51.9877 162.1133 0000641 152.9781 268.4300 12.62796459778601
GLOBALSTAR M079         
1 37188U 10054A   24225.85788802 -.00000079  00000+0  13563-3 0  9995
2 37188  52.0066 358.3905 0000642  81.8870  86.0947 12.62262401637517
GLOBALSTAR M074         
1 37189U 10054B   24225.80325612 -.00000072  00000+0  17542-3 0  9991
2 37189  52.0042 357.9266 0000784 100.9648  58.6702 12.62271161638114
GLOBALSTAR M076         
1 37190U 10054C   24225.83209120 -.00000059  00000+0  25044-3 0  9992
2 37190  52.0055 357.9840 0001037  77.7370  91.7125 12.62255189637830
GLOBALSTAR M077         
1 37191U 10054D   24225.66050258 -.00000058  00000+0  25623-3 0  9992
2 37191  52.0091 315.2747 0000640 115.5934  54.6254 12.62262332638188
GLOBALSTAR M075         
1 37192U 10054E   24225.81094014 -.00000081  00000+0  12909-3 0  9997
2 37192  51.9957  40.4749 0000751  81.9511 292.1373 12.62262700637063
GLOBALSTAR M073         
1 37193U 10054F   24225.42937479 -.00000073  00000+0  17158-3 0  9998
2 37193  52.0076 315.2239 0000670 101.9828 336.6478 12.62267881638841
GLOBALSTAR M083         
1 37739U 11033A   24225.85857956 -.00000099  00000+0  27209-4 0  9997
2 37739  51.9849 263.0683 0000156 152.8829  18.4884 12.62263392607914
GLOBALSTAR M088         
1 37740U 11033B   24225.88118281 -.00000079  00000+0  13668-3 0  9994
2 37740  51.9722 168.7468 0000352  17.5206  17.0805 12.62266049603468
GLOBALSTAR M091         
1 37741U 11033C   24225.52885560 -.00000071  00000+0  18356-3 0  9998
2 37741  51.9994 132.8266 0000402  16.8508 154.2239 12.62265649604204
GLOBALSTAR M085         
1 37742U 11033D   24225.87652924 -.00000091  00000+0  70296-4 0  9997
2 37742  51.9864  83.0772 0000563  56.8664 316.2610 12.62264413604767
GLOBALSTAR M081         
1 37743U 11033E   24225.92275062 -.00000082  00000+0  12087-3 0  9991
2 37743  51.9957  85.5338 0000753  44.2554  58.5840 12.62267878604912
GLOBALSTAR M089         
1 37744U 11033F   24225.97761986 -.00000082  00000+0  12329-3 0  9991
2 37744  51.9940  39.6540 0001140  78.6169  92.1477 12.62267015605761
GLOBALSTAR M084         
1 38040U 11080A   24225.83254573 -.00000075  00000+0  16071-3 0  9997
2 38040  51.9995 267.2213 0000625 110.9943  61.3438 12.62265569583722
GLOBALSTAR M080         
1 38041U 11080B   24225.56625663 -.00000069  00000+0  19344-3 0  9999
2 38041  52.0049 269.5303 0000677  87.8840  73.9520 12.62263938583814
GLOBALSTAR M082         
1 38042U 11080C   24225.94248189 -.00000079  00000+0  14043-3 0  9998
2 38042  52.0049 223.7963 0000418 223.3518 148.9458 12.62265007584577
GLOBALSTAR M092         
1 38043U 11080D   24225.62937691 -.00000073  00000+0  17224-3 0  9995
2 38043  52.0103 315.1111 0000714 118.1669  30.8234 12.62265012582987
GLOBALSTAR M090         
1 38044U 11080E   24225.97019291 -.00000078  00000+0  14566-3 0  9992
2 38044  51.9860 217.9176 0000116 230.4392 147.5776 12.62266013584692
GLOBALSTAR M086         
1 38045U 11080F   24225.71350216 -.00000073  00000+0  17062-3 0  9999
2 38045  51.9871 219.2254 0000945   2.9342 168.8087 12.62265436584604
GLOBALSTAR M097         
1 39072U 13005A   24225.94019597 -.00000090  00000+0  78999-4 0  9994
2 39072  52.0043 132.7719 0000538  25.9692 334.1201 12.62269387531881
GLOBALSTAR M093         
1 39073U 13005B   24225.91316114 -.00000078  00000+0  14428-3 0  9999
2 39073  51.9805 126.6463 0000598  17.9983 342.0905 12.62276904531831
GLOBALSTAR M094         
1 39074U 13005C   24225.91332761 -.00000086  00000+0  10019-3 0  9997
2 39074  51.9968  40.7190 0000651  66.0431 294.0503 12.62266808533449
GLOBALSTAR M096         
1 39075U 13005D   24225.92658512 -.00000088  00000+0  85807-4 0  9994
2 39075  52.0070  88.9541 0000561  40.8098 319.2811 12.62268690532362
GLOBALSTAR M078         
1 39076U 13005E   24225.82097576 -.00000078  00000+0  14262-3 0  9996
2 39076  51.9861 174.2039 0000643 205.6834 154.4001 12.62273704530977
GLOBALSTAR M095         
1 39077U 13005F   24225.92645551 -.00000075  00000+0  16006-3 0  9995
2 39077  51.9787 171.2319 0000364 283.4118  76.6708 12.62263060530841
GLOBALSTAR M087         
1 52888U 22064A   24225.67384864 -.00000052  00000+0  14493-3 0  9997
2 52888  51.9777  11.4134 0009912 144.3786 215.7778 13.37581125105084
